{"type": "FeatureCollection", "features": [ {"type": "Feature", "properties": {"norad_id": 37966, "name": "COSMOS 2251 DEB", "group": "cosmos-2251-debris", "lat": -73.90426355171017, "lon": 139.1893629370846, "alt_km": 541.9716274699504, "timestamp": "2025-12-10T21:43:22.488999+00:00", "meta": {"OBJECT_NAME": "COSMOS 2251 DEB", "OBJECT_ID": "1993-036BPR", "EPOCH": "2025-12-09T09:36:29.677536", "MEAN_MOTION": 15.12084932, "ECCENTRICITY": 0.0008975, "INCLINATION": 73.977, "RA_OF_ASC_NODE": 237.4896, "ARG_OF_PERICENTER": 112.4769, "MEAN_ANOMALY": 247.7375, "EPHEMERIS_TYPE": 0, "CLASSIFICATION_TYPE": "U", "NORAD_CAT_ID": 37966, "ELEMENT_SET_NO": 999, "REV_AT_EPOCH": 85292, "BSTAR": 0.003976161, "MEAN_MOTION_DOT": 0.00069139, "MEAN_MOTION_DDOT": 0}, "tle": {"line1": "1 37966U 93036BPR 25343.40034349  .00069139  00000+0  39762-2 0  9992", "line2": "2 37966  73.9770 237.4896 0008975 112.4769 247.7375 15.12084932852920"}}, "geometry": {"type": "Point", "coordinates": [139.1893629370846, -73.90426355171017]}}, {"type": "Feature", "properties": {"norad_id": 37967, "name": "COSMOS 2251 DEB", "group": "cosmos-2251-debris", "lat": 49.592108398078224, "lon": 160.45959843638207, "alt_km": 823.8761531118225, "timestamp": "2025-12-10T21:43:22.489012+00:00", "meta": {"OBJECT_NAME": "COSMOS 2251 DEB", "OBJECT_ID": "1993-036BPS", "EPOCH": "2025-12-09T17:08:35.965824", "MEAN_MOTION": 14.40464206, "ECCENTRICITY": 0.01508449, "INCLINATION": 74.0151, "RA_OF_ASC_NODE": 142.9877, "ARG_OF_PERICENTER": 282.4198, "MEAN_ANOMALY": 76.0112, "EPHEMERIS_TYPE": 0, "CLASSIFICATION_TYPE": "U", "NORAD_CAT_ID": 37967, "ELEMENT_SET_NO": 999, "REV_AT_EPOCH": 64692, "BSTAR": 0.0023151814, "MEAN_MOTION_DOT": 8.402e-05, "MEAN_MOTION_DDOT": 0}, "tle": {"line1": "1 37967U 93036BPS 25343.71430516  .00008402  00000+0  23152-2 0  9995", "line2": "2 37967  74.0151 142.9877 0150844 282.4198  76.0112 14.40464206646921"}}, "geometry": {"type": "Point", "coordinates": [160.45959843638207, 49.592108398078224]}}, {"type": "Feature", "properties": {"norad_id": 37968, "name": "COSMOS 2251 DEB", "group": "cosmos-2251-debris", "lat": 12.62691710930578, "lon": 91.21354377689728, "alt_km": 605.9085473457562, "timestamp": "2025-12-10T21:43:22.489033+00:00", "meta": {"OBJECT_NAME": "COSMOS 2251 DEB", "OBJECT_ID": "1993-036BPT", "EPOCH": "2025-12-10T12:59:12.329952", "MEAN_MOTION": 15.00519142, "ECCENTRICITY": 0.00805995, "INCLINATION": 74.0006, "RA_OF_ASC_NODE": 275.6407, "ARG_OF_PERICENTER": 31.9786, "MEAN_ANOMALY": 328.6254, "EPHEMERIS_TYPE": 0, "CLASSIFICATION_TYPE": "U", "NORAD_CAT_ID": 37968, "ELEMENT_SET_NO": 999, "REV_AT_EPOCH": 60186, "BSTAR": 0.0016056492, "MEAN_MOTION_DOT": 0.00021716, "MEAN_MOTION_DDOT": 0}, "tle": {"line1": "1 37968U 93036BPT 25344.54111493  .00021716  00000+0  16056-2 0  9996", "line2": "2 37968  74.0006 275.6407 0080599  31.9786 328.6254 15.00519142601867"}}, "geometry": {"type": "Point", "coordinates": [91.21354377689728, 12.62691710930578]}}, {"type": "Feature", "properties": {"norad_id": 37971, "name": "COSMOS 2251 DEB", "group": "cosmos-2251-debris", "lat": 61.40442907641441, "lon": 76.96194178554158, "alt_km": 746.4354131731116, "timestamp": "2025-12-10T21:43:22.489044+00:00", "meta": {"OBJECT_NAME": "COSMOS 2251 DEB", "OBJECT_ID": "1993-036BPW", "EPOCH": "2025-12-10T13:07:43.259808", "MEAN_MOTION": 14.48584185, "ECCENTRICITY": 0.00675879, "INCLINATION": 73.9941, "RA_OF_ASC_NODE": 45.8601, "ARG_OF_PERICENTER": 185.0765, "MEAN_ANOMALY": 174.9719, "EPHEMERIS_TYPE": 0, "CLASSIFICATION_TYPE": "U", "NORAD_CAT_ID": 37971, "ELEMENT_SET_NO": 999, "REV_AT_EPOCH": 60646, "BSTAR": 0.0032808426, "MEAN_MOTION_DOT": 0.00012691, "MEAN_MOTION_DDOT": 0}, "tle": {"line1": "1 37971U 93036BPW 25344.54702847  .00012691  00000+0  32808-2 0  9994", "line2": "2 37971  73.9941  45.8601 0067587 185.0765 174.9719 14.48584185606469"}}, "geometry": {"type": "Point", "coordinates": [76.96194178554158, 61.40442907641441]}}, {"type": "Feature", "properties": {"norad_id": 37975, "name": "COSMOS 2251 DEB", "group": "cosmos-2251-debris", "lat": 43.79585251046727, "lon": 131.7036817811126, "alt_km": 705.8500090371253, "timestamp": "2025-12-10T21:43:22.489054+00:00", "meta": {"OBJECT_NAME": "COSMOS 2251 DEB", "OBJECT_ID": "1993-036BQA", "EPOCH": "2025-12-09T06:04:12.444384", "MEAN_MOTION": 14.75750431, "ECCENTRICITY": 0.0096458, "INCLINATION": 74.0034, "RA_OF_ASC_NODE": 330.9079, "ARG_OF_PERICENTER": 321.0366, "MEAN_ANOMALY": 38.3883, "EPHEMERIS_TYPE": 0, "CLASSIFICATION_TYPE": "U", "NORAD_CAT_ID": 37975, "ELEMENT_SET_NO": 999, "REV_AT_EPOCH": 69694, "BSTAR": 0.0053103, "MEAN_MOTION_DOT": 0.00039407, "MEAN_MOTION_DDOT": 0}, "tle": {"line1": "1 37975U 93036BQA 25343.25292181  .00039407  00000+0  53103-2 0  9995", "line2": "2 37975  74.0034 330.9079 0096458 321.0366  38.3883 14.75750431696949"}}, "geometry": {"type": "Point", "coordinates": [131.7036817811126, 43.79585251046727]}}, {"type": "Feature", "properties": {"norad_id": 37978, "name": "COSMOS 2251 DEB", "group": "cosmos-2251-debris", "lat": -70.84770651339038, "lon": 37.64886527474876, "alt_km": 329.2145413174276, "timestamp": "2025-12-10T21:43:22.489067+00:00", "meta": {"OBJECT_NAME": "COSMOS 2251 DEB", "OBJECT_ID": "1993-036BQD", "EPOCH": "2025-11-19T05:08:53.100672", "MEAN_MOTION": 15.61137081, "ECCENTRICITY": 0.00148985, "INCLINATION": 74.0238, "RA_OF_ASC_NODE": 142.2198, "ARG_OF_PERICENTER": 140.9849, "MEAN_ANOMALY": 219.2448, "EPHEMERIS_TYPE": 0, "CLASSIFICATION_TYPE": "U", "NORAD_CAT_ID": 37978, "ELEMENT_SET_NO": 999, "REV_AT_EPOCH": 8032, "BSTAR": 0.0043958825, "MEAN_MOTION_DOT": 0.0039117, "MEAN_MOTION_DDOT": 0}, "tle": {"line1": "1 37978U 93036BQD 25323.21450348  .00391170  00000+0  43959-2 0  9999", "line2": "2 37978  74.0238 142.2198 0014898 140.9849 219.2448 15.61137081 80328"}}, "geometry": {"type": "Point", "coordinates": [37.64886527474876, -70.84770651339038]}}, {"type": "Feature", "properties": {"norad_id": 37985, "name": "COSMOS 2251 DEB", "group": "cosmos-2251-debris", "lat": 65.74763668610922, "lon": 49.62229793718381, "alt_km": 763.0905019394031, "timestamp": "2025-12-10T21:43:22.489077+00:00", "meta": {"OBJECT_NAME": "COSMOS 2251 DEB", "OBJECT_ID": "1993-036BQL", "EPOCH": "2025-12-10T12:51:29.994912", "MEAN_MOTION": 14.35481838, "ECCENTRICITY": 0.00207262, "INCLINATION": 74.0254, "RA_OF_ASC_NODE": 269.7813, "ARG_OF_PERICENTER": 33.1877, "MEAN_ANOMALY": 327.0571, "EPHEMERIS_TYPE": 0, "CLASSIFICATION_TYPE": "U", "NORAD_CAT_ID": 37985, "ELEMENT_SET_NO": 999, "REV_AT_EPOCH": 64885, "BSTAR": 9.1574838e-05, "MEAN_MOTION_DOT": 2.38e-06, "MEAN_MOTION_DDOT": 0}, "tle": {"line1": "1 37985U 93036BQL 25344.53576383  .00000238  00000+0  91575-4 0  9994", "line2": "2 37985  74.0254 269.7813 0020726  33.1877 327.0571 14.35481838648859"}}, "geometry": {"type": "Point", "coordinates": [49.62229793718381, 65.74763668610922]}}, {"type": "Feature", "properties": {"norad_id": 37988, "name": "COSMOS 2251 DEB", "group": "cosmos-2251-debris", "lat": -64.20250525890951, "lon": -116.1945289499583, "alt_km": 716.0228619849095, "timestamp": "2025-12-10T21:43:22.489088+00:00", "meta": {"OBJECT_NAME": "COSMOS 2251 DEB", "OBJECT_ID": "1993-036BQP", "EPOCH": "2025-12-10T09:09:04.843584", "MEAN_MOTION": 14.68826151, "ECCENTRICITY": 0.00631322, "INCLINATION": 74.0642, "RA_OF_ASC_NODE": 28.581, "ARG_OF_PERICENTER": 66.7432, "MEAN_ANOMALY": 294.0368, "EPHEMERIS_TYPE": 0, "CLASSIFICATION_TYPE": "U", "NORAD_CAT_ID": 37988, "ELEMENT_SET_NO": 999, "REV_AT_EPOCH": 23361, "BSTAR": 0.0011678805, "MEAN_MOTION_DOT": 7.005e-05, "MEAN_MOTION_DDOT": 0}, "tle": {"line1": "1 37988U 93036BQP 25344.38130606  .00007005  00000+0  11679-2 0  9998", "line2": "2 37988  74.0642  28.5810 0063132  66.7432 294.0368 14.68826151233616"}}, "geometry": {"type": "Point", "coordinates": [-116.1945289499583, -64.20250525890951]}}, {"type": "Feature", "properties": {"norad_id": 37993, "name": "COSMOS 2251 DEB", "group": "cosmos-2251-debris", "lat": 73.54658622763264, "lon": -113.60752740974212, "alt_km": 701.662566363515, "timestamp": "2025-12-10T21:43:22.489098+00:00", "meta": {"OBJECT_NAME": "COSMOS 2251 DEB", "OBJECT_ID": "1993-036BQU", "EPOCH": "2025-12-09T05:51:24.736320", "MEAN_MOTION": 14.59845478, "ECCENTRICITY": 0.0022054, "INCLINATION": 74.0217, "RA_OF_ASC_NODE": 173.5884, "ARG_OF_PERICENTER": 262.4751, "MEAN_ANOMALY": 97.3909, "EPHEMERIS_TYPE": 0, "CLASSIFICATION_TYPE": "U", "NORAD_CAT_ID": 37993, "ELEMENT_SET_NO": 999, "REV_AT_EPOCH": 65266, "BSTAR": 0.0017274, "MEAN_MOTION_DOT": 8.27e-05, "MEAN_MOTION_DDOT": 0}, "tle": {"line1": "1 37993U 93036BQU 25343.24403630  .00008270  00000+0  17274-2 0  9990", "line2": "2 37993  74.0217 173.5884 0022054 262.4751  97.3909 14.59845478652667"}}, "geometry": {"type": "Point", "coordinates": [-113.60752740974212, 73.54658622763264]}}, {"type": "Feature", "properties": {"norad_id": 37994, "name": "COSMOS 2251 DEB", "group": "cosmos-2251-debris", "lat": -50.07858887233589, "lon": -100.92660208449203, "alt_km": 756.1693434785193, "timestamp": "2025-12-10T21:43:22.489108+00:00", "meta": {"OBJECT_NAME": "COSMOS 2251 DEB", "OBJECT_ID": "1993-036BQV", "EPOCH": "2025-12-10T13:37:42.069792", "MEAN_MOTION": 14.39615784, "ECCENTRICITY": 0.00228355, "INCLINATION": 74.0369, "RA_OF_ASC_NODE": 279.6991, "ARG_OF_PERICENTER": 359.5172, "MEAN_ANOMALY": 0.5956, "EPHEMERIS_TYPE": 0, "CLASSIFICATION_TYPE": "U", "NORAD_CAT_ID": 37994, "ELEMENT_SET_NO": 999, "REV_AT_EPOCH": 77033, "BSTAR": 0.00063028708, "MEAN_MOTION_DOT": 1.95e-05, "MEAN_MOTION_DDOT": 0}, "tle": {"line1": "1 37994U 93036BQV 25344.56784803  .00001950  00000+0  63029-3 0  9999", "line2": "2 37994  74.0369 279.6991 0022835 359.5172   0.5956 14.39615784770331"}}, "geometry": {"type": "Point", "coordinates": [-100.92660208449203, -50.07858887233589]}}]}